[{"OBJECT_NAME":"SHIJIAN-6 01B (SJ-6 01B)","OBJECT_ID":"2004-035B","EPOCH":"2026-03-09T23:36:14.904576","MEAN_MOTION":15.05644225,"ECCENTRICITY":0.00063174,"INCLINATION":97.6149,"RA_OF_ASC_NODE":88.1348,"ARG_OF_PERICENTER":111.8734,"MEAN_ANOMALY":248.3165,"EPHEMERIS_TYPE":0,"CLASSIFICATION_TYPE":"U","NORAD_CAT_ID":28414,"ELEMENT_SET_NO":999,"REV_AT_EPOCH":17189,"BSTAR":0.00017015082,"MEAN_MOTION_DOT":2.395e-5,"MEAN_MOTION_DDOT":0},{"OBJECT_NAME":"PEGASUS DEB","OBJECT_ID":"1994-029ZE","EPOCH":"2026-03-08T13:49:14.638368","MEAN_MOTION":13.44629817,"ECCENTRICITY":0.07289068,"INCLINATION":81.5203,"RA_OF_ASC_NODE":278.2553,"ARG_OF_PERICENTER":266.581,"MEAN_ANOMALY":85.1759,"EPHEMERIS_TYPE":0,"CLASSIFICATION_TYPE":"U","NORAD_CAT_ID":24602,"ELEMENT_SET_NO":999,"REV_AT_EPOCH":43194,"BSTAR":0.00096331603,"MEAN_MOTION_DOT":2.96e-5,"MEAN_MOTION_DDOT":0}]
